NORAD_CAT_ID,OBJECT_NAME,OBJECT_TYPE,EPOCH,MEAN_MOTION,ECCENTRICITY,INCLINATION,RA_OF_ASC_NODE,ARG_OF_PERICENTER,MEAN_ANOMALY,BSTAR,MEAN_MOTION_DOT,MEAN_MOTION_DDOT,TLE_LINE0,TLE_LINE1,TLE_LINE2,SEMIMAJOR_AXIS,PERIOD,APOGEE,PERIGEE,DECAYED
53009.0,STARLINK-4277,PAYLOAD,2023-11-18 01:33:42,15.08841192,0.0001707,53.2164,266.8094,89.1311,270.9877,0.00014876,2.08e-05,0.0,0 STARLINK-4277,1 53009U 22076Z   23322.06507910  .00002080  00000-0  14876-3 0  9993,2 53009  53.2164 266.8094 0001707  89.1311 270.9877 15.08841192 76241,6917.877,95.437,540.923,538.561,0.0
53009.0,STARLINK-4277,PAYLOAD,2023-11-18 06:19:52,15.08838758,0.0001765,53.2163,265.9168,95.24,264.8793,0.00040666,6.19e-05,0.0,0 STARLINK-4277,1 53009U 22076Z   23322.26380153  .00006190  00000-0  40666-3 0  9995,2 53009  53.2163 265.9168 0001765  95.2400 264.8793 15.08838758 75807,6917.884,95.438,540.97,538.528,0.0
53009.0,STARLINK-4277,PAYLOAD,2023-11-19 02:59:52,15.08843428,0.0001653,53.2164,262.0503,92.2482,267.8699,0.00013621,1.881e-05,0.0,0 STARLINK-4277,1 53009U 22076Z   23323.12491736  .00001881  00000-0  13621-3 0  9994,2 53009  53.2164 262.0503 0001653  92.2482 267.8699 15.08843428 76407,6917.87,95.437,540.878,538.591,0.0
53009.0,STARLINK-4277,PAYLOAD,2023-11-19 12:32:11,15.08841189,0.0001747,53.217,260.2663,86.3701,273.749,0.00032443,4.879e-05,0.0,0 STARLINK-4277,1 53009U 22076Z   23323.52235977  .00004879  00000-0  32443-3 0  9994,2 53009  53.2170 260.2663 0001747  86.3701 273.7490 15.08841189 75993,6917.877,95.437,540.95,538.533,0.0
53009.0,STARLINK-4277,PAYLOAD,2023-11-19 20:29:07,15.08834604,0.0002085,53.218,258.7841,110.5663,249.5553,0.00030055,4.498e-05,0.0,0 STARLINK-4277,1 53009U 22076Z   23323.85356132  .00004498  00000-0  30055-3 0  9991,2 53009  53.2180 258.7841 0002085 110.5663 249.5553 15.08834604 76511,6917.897,95.438,541.204,538.32,0.0
53009.0,STARLINK-4277,PAYLOAD,2023-11-20 02:50:39,15.08844528,0.0001536,53.2165,257.5911,90.5416,269.5753,0.00011488,1.541e-05,0.0,0 STARLINK-4277,1 53009U 22076Z   23324.11851600  .00001541  00000-0  11488-3 0  9996,2 53009  53.2165 257.5911 0001536  90.5416 269.5753 15.08844528 76556,6917.867,95.437,540.794,538.669,0.0
53009.0,STARLINK-4277,PAYLOAD,2023-11-20 12:22:58,15.08842742,0.0001488,53.2158,255.8074,111.5331,248.582,-1.9838e-05,-6.04e-06,0.0,0 STARLINK-4277,1 53009U 22076Z   23324.51595619 -.00000604  00000-0 -19838-4 0  9994,2 53009  53.2158 255.8074 0001488 111.5331 248.5820 15.08842742 76148,6917.872,95.437,540.766,538.708,0.0
53009.0,STARLINK-4277,PAYLOAD,2023-11-21 04:16:49,15.08850568,0.0001546,53.2162,252.8351,90.412,269.7049,0.00014597,2.037e-05,0.0,0 STARLINK-4277,1 53009U 22076Z   23325.17835235  .00002037  00000-0  14597-3 0  9994,2 53009  53.2162 252.8351 0001546  90.4120 269.7049 15.08850568 76710,6917.848,95.437,540.783,538.644,0.0
53009.0,STARLINK-4277,PAYLOAD,2023-11-22 02:32:14,15.08843695,0.0001552,53.2162,248.6725,90.0256,270.0914,0.00013351,1.838e-05,0.0,0 STARLINK-4277,1 53009U 22076Z   23326.10571816  .00001838  00000-0  13351-3 0  9995,2 53009  53.2162 248.6725 0001552  90.0256 270.0914 15.08843695 76855,6917.869,95.437,540.808,538.66,0.0
53009.0,STARLINK-4277,PAYLOAD,2023-11-22 04:07:36,15.08847243,0.000144,53.2156,248.3737,96.3617,263.7539,0.00021758,3.177e-05,0.0,0 STARLINK-4277,1 53009U 22076Z   23326.17195434  .00003177  00000-0  21758-3 0  9998,2 53009  53.2156 248.3737 0001440  96.3617 263.7539 15.08847243 76398,6917.858,95.437,540.719,538.727,0.0
53009.0,STARLINK-4277,PAYLOAD,2023-11-23 02:23:00,15.08853512,0.0001713,53.2163,244.2112,72.7124,287.4055,0.00045591,6.978e-05,0.0,0 STARLINK-4277,1 53009U 22076Z   23327.09931335  .00006978  00000-0  45591-3 0  9991,2 53009  53.2163 244.2112 0001713  72.7124 287.4055 15.08853512 76530,6917.839,95.437,540.889,538.519,0.0
53009.0,STARLINK-4277,PAYLOAD,2023-11-23 18:16:52,15.08832286,0.0001439,53.2165,241.2376,95.822,264.2936,-8.5944e-05,-1.655e-05,0.0,0 STARLINK-4277,1 53009U 22076Z   23327.76172032 -.00001655  00000-0 -85944-4 0  9992,2 53009  53.2165 241.2376 0001439  95.8220 264.2936 15.08832286 77109,6917.904,95.438,540.764,538.773,0.0
53009.0,STARLINK-4277,PAYLOAD,2023-11-24 00:38:25,15.08832748,0.0001548,53.2165,240.0468,91.0879,269.029,-1.9233e-05,-5.94e-06,0.0,0 STARLINK-4277,1 53009U 22076Z   23328.02668319 -.00000594  00000-0 -19233-4 0  9999,2 53009  53.2165 240.0468 0001548  91.0879 269.0290 15.08832748 76677,6917.903,95.438,540.838,538.697,0.0
53009.0,STARLINK-4277,PAYLOAD,2023-11-24 21:18:26,15.08833846,0.0001598,53.2168,236.1809,108.6314,251.4852,0.00014539,2.026e-05,0.0,0 STARLINK-4277,1 53009U 22076Z   23328.88780873  .00002026  00000-0  14539-3 0  9996,2 53009  53.2168 236.1809 0001598 108.6314 251.4852 15.08833846 76803,6917.899,95.438,540.87,538.659,0.0
53009.0,STARLINK-4277,PAYLOAD,2023-11-25 03:39:58,15.08846476,0.0001517,53.2158,234.9903,96.3185,263.798,0.00034682,5.237e-05,0.0,0 STARLINK-4277,1 53009U 22076Z   23329.15276599  .00005237  00000-0  34682-3 0  9990,2 53009  53.2158 234.9903 0001517  96.3185 263.7980 15.08846476 77311,6917.861,95.437,540.775,538.676,0.0
53009.0,STARLINK-4277,PAYLOAD,2023-11-25 21:09:13,15.08862017,0.0001641,53.2161,231.7189,104.2198,255.8976,0.00070971,0.00011032,0.0,0 STARLINK-4277,1 53009U 22076Z   23329.88140133  .00011032  00000-0  70971-3 0  9995,2 53009  53.2161 231.7189 0001641 104.2198 255.8976 15.08862017 76952,6917.813,95.436,540.813,538.543,0.0
53009.0,STARLINK-4277,PAYLOAD,2023-11-26 00:19:58,15.08877541,0.0001748,53.217,231.1241,100.5921,259.5268,0.0012265,0.00019306,0.0,0 STARLINK-4277,1 53009U 22076Z   23330.01387715  .00019306  00000-0  12265-2 0  9994,2 53009  53.2170 231.1241 0001748 100.5921 259.5268 15.08877541 77444,6917.766,95.435,540.84,538.421,0.0
53009.0,STARLINK-4277,PAYLOAD,2023-11-26 17:49:13,15.0883888,0.0001851,53.217,227.8509,125.8472,234.2692,-0.00018703,-3.263e-05,0.0,0 STARLINK-4277,1 53009U 22076Z   23330.74252045 -.00003263  00000-0 -18703-3 0  9992,2 53009  53.2170 227.8509 0001851 125.8472 234.2692 15.08838880 77555,6917.884,95.438,541.029,538.468,0.0
53009.0,STARLINK-4277,PAYLOAD,2023-11-26 22:35:23,15.08838199,0.0001898,53.2168,226.9598,126.556,233.5607,-0.00013098,-2.372e-05,0.0,0 STARLINK-4277,1 53009U 22076Z   23330.94124245 -.00002372  00000-0 -13098-3 0  9996,2 53009  53.2168 226.9598 0001898 126.5560 233.5607 15.08838199 77110,6917.886,95.438,541.064,538.438,0.0
53009.0,STARLINK-4277,PAYLOAD,2023-11-27 22:26:10,15.08839463,0.00018,53.2161,222.5054,121.8556,238.2612,0.00014513,2.022e-05,0.0,0 STARLINK-4277,1 53009U 22076Z   23331.93484859  .00002022  00000-0  14513-3 0  9999,2 53009  53.2161 222.5054 0001800 121.8556 238.2612 15.08839463 77267,6917.882,95.438,540.992,538.502,0.0
53009.0,STARLINK-4277,PAYLOAD,2023-11-28 03:12:20,15.08843034,0.0002044,53.2157,221.6088,130.3587,229.7584,0.00034183,5.157e-05,0.0,0 STARLINK-4277,1 53009U 22076Z   23332.13356749  .00005157  00000-0  34183-3 0  9995,2 53009  53.2157 221.6088 0002044 130.3587 229.7584 15.08843034 77294,6917.871,95.437,541.15,538.322,0.0
53009.0,STARLINK-4277,PAYLOAD,2023-11-28 20:41:35,15.08840944,0.0001605,53.2149,218.3331,113.2457,246.8705,0.00027547,4.099e-05,0.0,0 STARLINK-4277,1 53009U 22076Z   23332.86221113  .00004099  00000-0  27547-3 0  9991,2 53009  53.2149 218.3331 0001605 113.2457 246.8705 15.08840944 77402,6917.878,95.437,540.853,538.632,0.0
53009.0,STARLINK-4277,PAYLOAD,2023-11-29 01:27:44,15.08847025,0.0001488,53.215,217.4406,103.3721,256.7437,0.00035744,5.406e-05,0.0,0 STARLINK-4277,1 53009U 22076Z   23333.06092945  .00005406  00000-0  35744-3 0  9994,2 53009  53.2150 217.4406 0001488 103.3721 256.7437 15.08847025 77904,6917.859,95.437,540.753,538.695,0.0
53009.0,STARLINK-4277,PAYLOAD,2023-11-29 23:43:08,15.08846701,0.0001466,53.2154,213.2793,94.5273,265.5887,0.00020192,2.928e-05,0.0,0 STARLINK-4277,1 53009U 22076Z   23333.98828868  .00002928  00000-0  20192-3 0  9993,2 53009  53.2154 213.2793 0001466  94.5273 265.5887 15.08846701 78043,6917.86,95.437,540.739,538.711,0.0
53009.0,STARLINK-4277,PAYLOAD,2023-11-30 23:33:55,15.08840541,0.0001476,53.2147,208.8248,91.2541,268.862,0.00010943,1.454e-05,0.0,0 STARLINK-4277,1 53009U 22076Z   23334.98189375  .00001454  00000-0  10943-3 0  9993,2 53009  53.2147 208.8248 0001476  91.2541 268.8620 15.08840541 78196,6917.879,95.438,540.765,538.723,0.0
53009.0,STARLINK-4277,PAYLOAD,2023-12-01 21:49:18,15.08863732,0.0001563,53.2148,204.6592,84.8203,275.2967,0.00056352,8.698e-05,0.0,0 STARLINK-4277,1 53009U 22076Z   23335.90924615  .00008698  00000-0  56352-3 0  9991,2 53009  53.2148 204.6592 0001563  84.8203 275.2967 15.08863732 77869,6917.808,95.436,540.754,538.592,0.0
53009.0,STARLINK-4277,PAYLOAD,2023-12-02 01:00:04,15.08866582,0.0001579,53.215,204.0635,88.7007,271.4166,0.00059444,9.192e-05,0.0,0 STARLINK-4277,1 53009U 22076Z   23336.04172358  .00009192  00000-0  59444-3 0  9991,2 53009  53.2150 204.0635 0001579  88.7007 271.4166 15.08866582 78356,6917.799,95.436,540.756,538.572,0.0
53009.0,STARLINK-4277,PAYLOAD,2023-12-02 20:04:43,15.08844886,0.0001642,53.2155,200.4971,89.8217,270.2963,6.7778e-05,7.91e-06,0.0,0 STARLINK-4277,1 53009U 22076Z   23336.83660901  .00000791  00000-0  67778-4 0  9990,2 53009  53.2155 200.4971 0001642  89.8217 270.2963 15.08844886 78478,6917.865,95.437,540.866,538.595,0.0
53009.0,STARLINK-4277,PAYLOAD,2023-12-02 21:40:06,15.08843721,0.0001555,53.2152,200.2,78.1108,282.0058,5.5781e-05,6e-06,0.0,0 STARLINK-4277,1 53009U 22076Z   23336.90284947  .00000600  00000-0  55781-4 0  9990,2 53009  53.2152 200.2000 0001555  78.1108 282.0058 15.08843721 78012,6917.869,95.437,540.81,538.658,0.0
53009.0,STARLINK-4277,PAYLOAD,2023-12-03 19:55:30,15.08830047,0.0001672,53.2154,196.0344,103.2571,256.8608,-0.0002175,-3.747e-05,0.0,0 STARLINK-4277,1 53009U 22076Z   23337.83021596 -.00003747  00000-0 -21750-3 0  9997,2 53009  53.2154 196.0344 0001672 103.2571 256.8608 15.08830047 78625,6917.911,95.438,540.932,538.619,0.0
